CHUANGXIN 16A (CX-16A)  
1 53586U 22102A   26068.83297444  .00003128  00000+0  20134-3 0  9993
2 53586  28.9941 256.1289 0005063  43.7318 316.3682 15.05552649194538
STARLINK-34705          
1 64932U 25158A   26068.62949679  .00003556  00000+0  25057-3 0  9999
2 64932  97.6031 293.9692 0002170  66.8900 293.2555 15.05649645 35342
